     2.11           N: GPS NAV DATA                         RINEX VERSION / TYPE
teqc  2019Feb25                         20221121 12:23:16UTCPGM / RUN BY / DATE
OSX ker:10.11.6|Core i5|gcc 4.3 -m64|OSX ker:10.10+|=+      COMMENT
    7.4506D-09  2.2352D-08 -5.9605D-08 -1.1921D-07          ION ALPHA
    8.6016D+04  8.1920D+04 -1.3107D+05 -5.2429D+05          ION BETA
   -5.587935447693D-09-1.065814103640D-14    61440     1532 DELTA-UTC: A0,A1,T,W
                                                            END OF HEADER
21 09  5 15 23 59 44.0 1.378310844302D-05-2.046363078989D-12 0.000000000000D+00
    2.100000000000D+01 1.603125000000D+01 5.071996983319D-09-2.839916437187D+00
    6.873160600662D-07 1.521475554910D-02 7.085502147675D-06 5.153613611221D+03
    5.183840000000D+05-6.705522537231D-08-1.290289839922D-01-1.881271600723D-07
    9.344094175372D-01 2.294375000000D+02-2.607399384787D+00-8.085693944465D-09
   -2.392956819114D-11 1.000000000000D+00 1.531000000000D+03 0.000000000000D+00
    2.000000000000D+00 0.000000000000D+00-1.210719347000D-08 2.100000000000D+01
    5.154060000000D+05 4.000000000000D+00
